[{"OBJECT_NAME":"STARLINK-32263","OBJECT_ID":"2024-138S","EPOCH":"2026-03-09T21:32:12.571008","MEAN_MOTION":15.30186902,"ECCENTRICITY":0.00010471,"INCLINATION":53.1598,"RA_OF_ASC_NODE":308.3393,"ARG_OF_PERICENTER":90.2189,"MEAN_ANOMALY":269.8932,"EPHEMERIS_TYPE":0,"CLASSIFICATION_TYPE":"U","NORAD_CAT_ID":60371,"ELEMENT_SET_NO":999,"REV_AT_EPOCH":9056,"BSTAR":2.2275173e-5,"MEAN_MOTION_DOT":3.01e-6,"MEAN_MOTION_DDOT":0},{"OBJECT_NAME":"KUIPER-00175","OBJECT_ID":"2025-301C","EPOCH":"2026-03-09T23:30:37.840032","MEAN_MOTION":15.30996371,"ECCENTRICITY":0.00022792,"INCLINATION":51.8781,"RA_OF_ASC_NODE":63.6978,"ARG_OF_PERICENTER":50.5695,"MEAN_ANOMALY":309.549,"EPHEMERIS_TYPE":0,"CLASSIFICATION_TYPE":"U","NORAD_CAT_ID":67135,"ELEMENT_SET_NO":999,"REV_AT_EPOCH":1385,"BSTAR":0.00066732304,"MEAN_MOTION_DOT":0.00019968,"MEAN_MOTION_DDOT":0}]
